format  = 'OEF2.0'       ! file format
rectype = 'ML'           ! record type (1L/ML)
refsys  = ECLM J2000     ! default reference system
END_OF_HEADER
17188
! Cartesian position and velocity vectors
 CAR   2.05049763048741E-01  1.77649909649986E+00  1.13512991237379E-01 -1.05243622701455E-02 -7.11753329400311E-03 -5.88733835720123E-03
 MJD     56281.222793791 TDT
 MAG  16.635  0.150
! Non-grav parameters: model used, actual number in use, dimension
 LSP   0  0    6
! RMS    4.09736E-04   1.80531E-03   2.58097E-04   1.57040E-05   1.90345E-05   1.33211E-05
! EIG   5.25778E-08   5.65465E-08   9.55482E-07   9.92168E-07   3.78660E-06   1.86933E-03
! WEA   0.21919   0.96575   0.13807   0.00840  -0.01000  -0.00712
 COV   1.678838095406790E-07  7.396969767234834E-07  1.057502778515580E-07
 COV   6.431821696954938E-09 -7.653725570784428E-09 -5.449881626245201E-09
 COV   3.259134938507043E-06  4.659405768929886E-07  2.833735472157555E-08
 COV  -3.373129735234794E-08 -2.401410381819766E-08  6.661398863247487E-08
 COV   4.051095120722869E-09 -4.823495552440786E-09 -3.433303629153629E-09
 COV   2.466159807921614E-10 -2.915834029425732E-10 -2.084649316337364E-10
 COV   3.623137535750350E-10  2.511106413936745E-10  1.774520191215557E-10
 NOR   3.551609616602923E+12 -4.971464035469997E+11 -6.161531353850443E+10
 NOR  -3.032154603911657E+13  3.316510929293652E+12  2.929938890258422E+11
 NOR   1.889133763780217E+11 -5.709662749262812E+11  3.313588349344450E+12
 NOR  -1.397228954190562E+12  5.119816787552896E+12  3.156577236659314E+12
 NOR   2.899603204295601E+11  5.098209497853897E+12 -2.496066038644760E+13
 NOR   3.541800769685686E+14 -4.031280581129968E+13 -4.076370244772461E+12
 NOR   1.684797461546992E+13 -5.978754193707931E+13  2.987375179453802E+14
!MOID  0.06548    0
!NODES  0.09467  0.63846
17188
! Keplerian elements: a, e, i, long. node, arg. peric., mean anomaly
 KEP   2.2050633444553149E+00 0.633963464040604  29.2441874878610 269.9255196928468 287.1590666756679 321.8917205428614
 MJD     56281.222793791 TDT
 MAG  16.635  0.150
! Non-grav parameters: model used, actual number in use, dimension
 LSP   0  0    6
! RMS    7.21935E-03   1.48573E-03   9.88688E-02   2.47381E-02   2.35804E-02   1.88572E-01
! EIG   9.32083E-08   6.18693E-07   5.71841E-06   1.54476E-05   4.04766E-04   8.26606E-03
! WEA   0.87337   0.17973   0.20671  -0.05172   0.03753   0.39762
 COV   5.211898082429126E-05  1.072535556952547E-05  7.068103388822701E-04
 COV  -1.768485468397640E-04  1.283691801702204E-04  1.359518817817035E-03
 COV   2.207407797353220E-06  1.456527998850061E-04 -3.644329880590477E-05
 COV   2.664948542399726E-05  2.796289530606152E-04  9.775039823543342E-03
 COV  -2.445814787818899E-03  1.953760745998494E-03  1.830196668692449E-02
 COV   6.119729326298497E-04 -4.888610148287164E-04 -4.579269199272204E-03
 COV   5.560363575471244E-04  3.196934455192903E-03  3.555942551106277E-02
 NOR   4.647247849694456E+10 -1.350048935865416E+12 -1.395690509094665E+09
 NOR   4.869665433713296E+09  9.525920938203754E+09  9.328671709151579E+09
 NOR   7.850566884023650E+13 -6.600896383916468E+09 -4.902026132435585E+11
 NOR  -5.435966098623113E+11 -5.765885800986564E+11  1.134566780552629E+08
 NOR   3.262489491518039E+08  3.250479742823056E+07  8.596468945258574E+07
 NOR   3.811125689891099E+09  3.364063077172040E+09  3.689062007507846E+09
 NOR   3.766428032177712E+09  3.988357664872371E+09  4.249723447386997E+09
